{"type": "FeatureCollection", "features": [ {"type": "Feature", "properties": {"norad_id": 33153, "name": "INTELSAT 25 (IS-25)", "group": "intelsat", "lat": 1.4232571873200914, "lon": 120.90904378871984, "alt_km": 35804.29925041842, "timestamp": "2025-12-26T03:50:11.755402+00:00", "meta": {"OBJECT_NAME": "INTELSAT 25 (IS-25)", "OBJECT_ID": "2008-034A", "EPOCH": "2025-12-25T09:29:36.384000", "MEAN_MOTION": 1.0027183, "ECCENTRICITY": 0.0004941, "INCLINATION": 2.2584, "RA_OF_ASC_NODE": 82.5122, "ARG_OF_PERICENTER": 189.7179, "MEAN_ANOMALY": 292.833, "EPHEMERIS_TYPE": 0, "CLASSIFICATION_TYPE": "U", "NORAD_CAT_ID": 33153, "ELEMENT_SET_NO": 999, "REV_AT_EPOCH": 6395, "BSTAR": 0, "MEAN_MOTION_DOT": -2.03e-06, "MEAN_MOTION_DDOT": 0}, "tle": {"line1": "1 33153U 08034A   25359.39556000 -.00000203  00000+0  00000+0 0  9996", "line2": "2 33153   2.2584  82.5122 0004941 189.7179 292.8330  1.00271830 63950"}}, "geometry": {"type": "Point", "coordinates": [120.90904378871984, 1.4232571873200914]}}, {"type": "Feature", "properties": {"norad_id": 33376, "name": "GALAXY 19 (G-19)", "group": "intelsat", "lat": 0.029887340642002606, "lon": 55.47145280026282, "alt_km": 35794.23757393957, "timestamp": "2025-12-26T03:50:11.755414+00:00", "meta": {"OBJECT_NAME": "GALAXY 19 (G-19)", "OBJECT_ID": "2008-045A", "EPOCH": "2025-12-25T10:42:38.666304", "MEAN_MOTION": 1.00271832, "ECCENTRICITY": 0.0002747, "INCLINATION": 0.0408, "RA_OF_ASC_NODE": 264.6224, "ARG_OF_PERICENTER": 16.378, "MEAN_ANOMALY": 236.8641, "EPHEMERIS_TYPE": 0, "CLASSIFICATION_TYPE": "U", "NORAD_CAT_ID": 33376, "ELEMENT_SET_NO": 999, "REV_AT_EPOCH": 6316, "BSTAR": 0, "MEAN_MOTION_DOT": -1.18e-06, "MEAN_MOTION_DDOT": 0}, "tle": {"line1": "1 33376U 08045A   25359.44628086 -.00000118  00000+0  00000+0 0  9990", "line2": "2 33376   0.0408 264.6224 0002747  16.3780 236.8641  1.00271832 63167"}}, "geometry": {"type": "Point", "coordinates": [55.47145280026282, 0.029887340642002606]}}, {"type": "Feature", "properties": {"norad_id": 35493, "name": "FM-5", "group": "intelsat", "lat": 0.02076527380103827, "lon": 66.28713921076486, "alt_km": 35786.925724007335, "timestamp": "2025-12-26T03:50:11.755426+00:00", "meta": {"OBJECT_NAME": "FM-5", "OBJECT_ID": "2009-034A", "EPOCH": "2025-12-25T03:12:43.263648", "MEAN_MOTION": 1.00269775, "ECCENTRICITY": 8.51e-05, "INCLINATION": 0.0175, "RA_OF_ASC_NODE": 297.305, "ARG_OF_PERICENTER": 222.6055, "MEAN_ANOMALY": 256.0209, "EPHEMERIS_TYPE": 0, "CLASSIFICATION_TYPE": "U", "NORAD_CAT_ID": 35493, "ELEMENT_SET_NO": 999, "REV_AT_EPOCH": 4489, "BSTAR": 0, "MEAN_MOTION_DOT": -1.79e-06, "MEAN_MOTION_DDOT": 0}, "tle": {"line1": "1 35493U 09034A   25359.13383407 -.00000179  00000+0  00000+0 0  9999", "line2": "2 35493   0.0175 297.3050 0000851 222.6055 256.0209  1.00269775 44897"}}, "geometry": {"type": "Point", "coordinates": [66.28713921076486, 0.02076527380103827]}}, {"type": "Feature", "properties": {"norad_id": 36097, "name": "INTELSAT 14 (IS-14)", "group": "intelsat", "lat": 0.03347139719265356, "lon": 107.4200841514359, "alt_km": 35798.18326743193, "timestamp": "2025-12-26T03:50:11.755437+00:00", "meta": {"OBJECT_NAME": "INTELSAT 14 (IS-14)", "OBJECT_ID": "2009-064A", "EPOCH": "2025-12-24T11:10:22.140192", "MEAN_MOTION": 1.00269035, "ECCENTRICITY": 0.0002637, "INCLINATION": 0.013, "RA_OF_ASC_NODE": 11.8022, "ARG_OF_PERICENTER": 274.0942, "MEAN_ANOMALY": 289.9229, "EPHEMERIS_TYPE": 0, "CLASSIFICATION_TYPE": "U", "NORAD_CAT_ID": 36097, "ELEMENT_SET_NO": 999, "REV_AT_EPOCH": 5885, "BSTAR": 0, "MEAN_MOTION_DOT": -2.53e-06, "MEAN_MOTION_DDOT": 0}, "tle": {"line1": "1 36097U 09064A   25358.46553403 -.00000253  00000+0  00000+0 0  9996", "line2": "2 36097   0.0130  11.8022 0002637 274.0942 289.9229  1.00269035 58854"}}, "geometry": {"type": "Point", "coordinates": [107.4200841514359, 0.03347139719265356]}}, {"type": "Feature", "properties": {"norad_id": 36106, "name": "INTELSAT 15 (IS-15)", "group": "intelsat", "lat": -0.011522477902588788, "lon": -122.41719873655074, "alt_km": 35779.89546924062, "timestamp": "2025-12-26T03:50:11.755449+00:00", "meta": {"OBJECT_NAME": "INTELSAT 15 (IS-15)", "OBJECT_ID": "2009-067A", "EPOCH": "2025-12-25T18:35:54.991392", "MEAN_MOTION": 1.00270322, "ECCENTRICITY": 0.0002394, "INCLINATION": 0.0139, "RA_OF_ASC_NODE": 50.3473, "ARG_OF_PERICENTER": 236.5164, "MEAN_ANOMALY": 171.7997, "EPHEMERIS_TYPE": 0, "CLASSIFICATION_TYPE": "U", "NORAD_CAT_ID": 36106, "ELEMENT_SET_NO": 999, "REV_AT_EPOCH": 3949, "BSTAR": 0, "MEAN_MOTION_DOT": -1.63e-06, "MEAN_MOTION_DDOT": 0}, "tle": {"line1": "1 36106U 09067A   25359.77494203 -.00000163  00000+0  00000+0 0  9997", "line2": "2 36106   0.0139  50.3473 0002394 236.5164 171.7997  1.00270322 39491"}}, "geometry": {"type": "Point", "coordinates": [-122.41719873655074, -0.011522477902588788]}}, {"type": "Feature", "properties": {"norad_id": 36131, "name": "DIRECTV 12", "group": "intelsat", "lat": -0.010202422488904095, "lon": 49.749552474981286, "alt_km": 35785.91028833751, "timestamp": "2025-12-26T03:50:11.755461+00:00", "meta": {"OBJECT_NAME": "DIRECTV 12", "OBJECT_ID": "2009-075A", "EPOCH": "2025-12-25T14:17:27.635136", "MEAN_MOTION": 1.00273448, "ECCENTRICITY": 5.26e-05, "INCLINATION": 0.0362, "RA_OF_ASC_NODE": 165.2057, "ARG_OF_PERICENTER": 147.3669, "MEAN_ANOMALY": 253.4343, "EPHEMERIS_TYPE": 0, "CLASSIFICATION_TYPE": "U", "NORAD_CAT_ID": 36131, "ELEMENT_SET_NO": 999, "REV_AT_EPOCH": 4481, "BSTAR": 0, "MEAN_MOTION_DOT": -8.2e-07, "MEAN_MOTION_DDOT": 0}, "tle": {"line1": "1 36131U 09075A   25359.59545874 -.00000082  00000+0  00000+0 0  9995", "line2": "2 36131   0.0362 165.2057 0000526 147.3669 253.4343  1.00273448 44812"}}, "geometry": {"type": "Point", "coordinates": [49.749552474981286, -0.010202422488904095]}}, {"type": "Feature", "properties": {"norad_id": 36397, "name": "INTELSAT 16 (IS-16)", "group": "intelsat", "lat": 0.02671135287161637, "lon": 76.27410564924742, "alt_km": 35793.993821458345, "timestamp": "2025-12-26T03:50:11.755472+00:00", "meta": {"OBJECT_NAME": "INTELSAT 16 (IS-16)", "OBJECT_ID": "2010-006A", "EPOCH": "2025-12-25T04:32:09.998304", "MEAN_MOTION": 1.00272308, "ECCENTRICITY": 0.00019441, "INCLINATION": 0.0098, "RA_OF_ASC_NODE": 346.2974, "ARG_OF_PERICENTER": 284.2377, "MEAN_ANOMALY": 175.2747, "EPHEMERIS_TYPE": 0, "CLASSIFICATION_TYPE": "U", "NORAD_CAT_ID": 36397, "ELEMENT_SET_NO": 999, "REV_AT_EPOCH": 5791, "BSTAR": 0, "MEAN_MOTION_DOT": -2.23e-06, "MEAN_MOTION_DDOT": 0}, "tle": {"line1": "1 36397U 10006A   25359.18900461 -.00000223  00000+0  00000+0 0  9994", "line2": "2 36397   0.0098 346.2974 0001944 284.2377 175.2747  1.00272308 57911"}}, "geometry": {"type": "Point", "coordinates": [76.27410564924742, 0.02671135287161637]}}, {"type": "Feature", "properties": {"norad_id": 37185, "name": "XM-5", "group": "intelsat", "lat": 0.0554231858546801, "lon": 37.23515068211063, "alt_km": 35788.593021175824, "timestamp": "2025-12-26T03:50:11.755484+00:00", "meta": {"OBJECT_NAME": "XM-5", "OBJECT_ID": "2010-053A", "EPOCH": "2025-12-25T12:31:00.329376", "MEAN_MOTION": 1.0027234, "ECCENTRICITY": 0.0001895, "INCLINATION": 0.0637, "RA_OF_ASC_NODE": 269.6529, "ARG_OF_PERICENTER": 237.5328, "MEAN_ANOMALY": 19.6486, "EPHEMERIS_TYPE": 0, "CLASSIFICATION_TYPE": "U", "NORAD_CAT_ID": 37185, "ELEMENT_SET_NO": 999, "REV_AT_EPOCH": 5574, "BSTAR": 0, "MEAN_MOTION_DOT": -2e-08, "MEAN_MOTION_DDOT": 0}, "tle": {"line1": "1 37185U 10053A   25359.52153159 -.00000002  00000+0  00000+0 0  9999", "line2": "2 37185   0.0637 269.6529 0001895 237.5328  19.6486  1.00272340 55748"}}, "geometry": {"type": "Point", "coordinates": [37.23515068211063, 0.0554231858546801]}}, {"type": "Feature", "properties": {"norad_id": 37238, "name": "INTELSAT 17 (IS-17)", "group": "intelsat", "lat": 0.008822350299440418, "lon": -141.60559853831435, "alt_km": 35782.800825746126, "timestamp": "2025-12-26T03:50:11.755496+00:00", "meta": {"OBJECT_NAME": "INTELSAT 17 (IS-17)", "OBJECT_ID": "2010-065B", "EPOCH": "2025-12-25T20:46:32.444256", "MEAN_MOTION": 1.00271904, "ECCENTRICITY": 0.0002828, "INCLINATION": 0.0269, "RA_OF_ASC_NODE": 72.8389, "ARG_OF_PERICENTER": 220.007, "MEAN_ANOMALY": 179.3828, "EPHEMERIS_TYPE": 0, "CLASSIFICATION_TYPE": "U", "NORAD_CAT_ID": 37238, "ELEMENT_SET_NO": 999, "REV_AT_EPOCH": 5151, "BSTAR": 0, "MEAN_MOTION_DOT": 0, "MEAN_MOTION_DDOT": 0}, "tle": {"line1": "1 37238U 10065B   25359.86565329  .00000000  00000+0  00000+0 0  9991", "line2": "2 37238   0.0269  72.8389 0002828 220.0070 179.3828  1.00271904 51514"}}, "geometry": {"type": "Point", "coordinates": [-141.60559853831435, 0.008822350299440418]}}, {"type": "Feature", "properties": {"norad_id": 37392, "name": "INTELSAT 28 (IS-28)", "group": "intelsat", "lat": 0.8128048306443465, "lon": 120.7195234797382, "alt_km": 35800.10361080715, "timestamp": "2025-12-26T03:50:11.755508+00:00", "meta": {"OBJECT_NAME": "INTELSAT 28 (IS-28)", "OBJECT_ID": "2011-016A", "EPOCH": "2025-12-25T07:46:46.230816", "MEAN_MOTION": 1.00271849, "ECCENTRICITY": 0.0003772, "INCLINATION": 1.3552, "RA_OF_ASC_NODE": 84.9189, "ARG_OF_PERICENTER": 187.6126, "MEAN_ANOMALY": 266.5422, "EPHEMERIS_TYPE": 0, "CLASSIFICATION_TYPE": "U", "NORAD_CAT_ID": 37392, "ELEMENT_SET_NO": 999, "REV_AT_EPOCH": 5154, "BSTAR": 0, "MEAN_MOTION_DOT": -2.04e-06, "MEAN_MOTION_DDOT": 0}, "tle": {"line1": "1 37392U 11016A   25359.32414619 -.00000204  00000+0  00000+0 0  9992", "line2": "2 37392   1.3552  84.9189 0003772 187.6126 266.5422  1.00271849 51545"}}, "geometry": {"type": "Point", "coordinates": [120.7195234797382, 0.8128048306443465]}}]}